{"type": "FeatureCollection", "features": [ {"type": "Feature", "properties": {"norad_id": 40115, "name": "WORLDVIEW-3 (WV-3)", "group": "resource", "lat": -77.51721134174804, "lon": -162.97706948457298, "alt_km": 617.9777233621426, "timestamp": "2025-12-09T07:41:32.859991+00:00", "meta": {"OBJECT_NAME": "WORLDVIEW-3 (WV-3)", "OBJECT_ID": "2014-048A", "EPOCH": "2025-12-08T22:26:28.990464", "MEAN_MOTION": 14.85495819, "ECCENTRICITY": 0.00044719, "INCLINATION": 97.8619, "RA_OF_ASC_NODE": 55.2632, "ARG_OF_PERICENTER": 197.8409, "MEAN_ANOMALY": 162.265, "EPHEMERIS_TYPE": 0, "CLASSIFICATION_TYPE": "U", "NORAD_CAT_ID": 40115, "ELEMENT_SET_NO": 999, "REV_AT_EPOCH": 61367, "BSTAR": 0.00021923466, "MEAN_MOTION_DOT": 1.839e-05, "MEAN_MOTION_DDOT": 0}, "tle": {"line1": "1 40115U 14048A   25342.93505776  .00001839  00000+0  21923-3 0  9996", "line2": "2 40115  97.8619  55.2632 0004471 197.8409 162.2650 14.85495819613679"}}, "geometry": {"type": "Point", "coordinates": [-162.97706948457298, -77.51721134174804]}}, {"type": "Feature", "properties": {"norad_id": 40118, "name": "GAOFEN-2", "group": "resource", "lat": 41.57752642023365, "lon": -130.31463086572427, "alt_km": 618.4171627674123, "timestamp": "2025-12-09T07:41:32.860002+00:00", "meta": {"OBJECT_NAME": "GAOFEN-2", "OBJECT_ID": "2014-049A", "EPOCH": "2025-12-08T22:57:45.893952", "MEAN_MOTION": 14.80597966, "ECCENTRICITY": 0.00084424, "INCLINATION": 98.0387, "RA_OF_ASC_NODE": 42.1186, "ARG_OF_PERICENTER": 123.0914, "MEAN_ANOMALY": 237.111, "EPHEMERIS_TYPE": 0, "CLASSIFICATION_TYPE": "U", "NORAD_CAT_ID": 40118, "ELEMENT_SET_NO": 999, "REV_AT_EPOCH": 61108, "BSTAR": 0.00014496556, "MEAN_MOTION_DOT": 1.059e-05, "MEAN_MOTION_DDOT": 0}, "tle": {"line1": "1 40118U 14049A   25342.95678118  .00001059  00000+0  14497-3 0  9995", "line2": "2 40118  98.0387  42.1186 0008442 123.0914 237.1110 14.80597966611087"}}, "geometry": {"type": "Point", "coordinates": [-130.31463086572427, 41.57752642023365]}}, {"type": "Feature", "properties": {"norad_id": 40143, "name": "YAOGAN-21", "group": "resource", "lat": -66.62141943017059, "lon": 43.72512076367299, "alt_km": 505.58671328742093, "timestamp": "2025-12-09T07:41:32.860013+00:00", "meta": {"OBJECT_NAME": "YAOGAN-21", "OBJECT_ID": "2014-053A", "EPOCH": "2025-12-09T00:06:28.792224", "MEAN_MOTION": 15.23605202, "ECCENTRICITY": 0.00099636, "INCLINATION": 97.1756, "RA_OF_ASC_NODE": 26.4791, "ARG_OF_PERICENTER": 52.7646, "MEAN_ANOMALY": 307.4499, "EPHEMERIS_TYPE": 0, "CLASSIFICATION_TYPE": "U", "NORAD_CAT_ID": 40143, "ELEMENT_SET_NO": 999, "REV_AT_EPOCH": 62597, "BSTAR": 0.00027197459, "MEAN_MOTION_DOT": 6.452e-05, "MEAN_MOTION_DDOT": 0}, "tle": {"line1": "1 40143U 14053A   25343.00449991  .00006452  00000+0  27197-3 0  9993", "line2": "2 40143  97.1756  26.4791 0009963  52.7646 307.4499 15.23605202625976"}}, "geometry": {"type": "Point", "coordinates": [43.72512076367299, -66.62141943017059]}}, {"type": "Feature", "properties": {"norad_id": 40275, "name": "YAOGAN-22", "group": "resource", "lat": 14.780283592094351, "lon": -50.43762203933145, "alt_km": 1202.6096464505772, "timestamp": "2025-12-09T07:41:32.860024+00:00", "meta": {"OBJECT_NAME": "YAOGAN-22", "OBJECT_ID": "2014-063A", "EPOCH": "2025-12-08T23:33:20.209824", "MEAN_MOTION": 13.15522481, "ECCENTRICITY": 0.00059302, "INCLINATION": 100.742, "RA_OF_ASC_NODE": 126.348, "ARG_OF_PERICENTER": 257.3638, "MEAN_ANOMALY": 102.681, "EPHEMERIS_TYPE": 0, "CLASSIFICATION_TYPE": "U", "NORAD_CAT_ID": 40275, "ELEMENT_SET_NO": 999, "REV_AT_EPOCH": 53480, "BSTAR": 0.00011570888, "MEAN_MOTION_DOT": -3e-08, "MEAN_MOTION_DDOT": 0}, "tle": {"line1": "1 40275U 14063A   25342.98148391 -.00000003  00000+0  11571-3 0  9992", "line2": "2 40275 100.7420 126.3480 0005930 257.3638 102.6810 13.15522481534809"}}, "geometry": {"type": "Point", "coordinates": [-50.43762203933145, 14.780283592094351]}}, {"type": "Feature", "properties": {"norad_id": 40298, "name": "ASNARO", "group": "resource", "lat": 31.49841560823708, "lon": 54.80443710516295, "alt_km": 506.6085900228354, "timestamp": "2025-12-09T07:41:32.860034+00:00", "meta": {"OBJECT_NAME": "ASNARO", "OBJECT_ID": "2014-070A", "EPOCH": "2025-12-08T22:04:09.077664", "MEAN_MOTION": 15.19359043, "ECCENTRICITY": 0.0005407, "INCLINATION": 97.3651, "RA_OF_ASC_NODE": 58.9594, "ARG_OF_PERICENTER": 131.5407, "MEAN_ANOMALY": 228.6292, "EPHEMERIS_TYPE": 0, "CLASSIFICATION_TYPE": "U", "NORAD_CAT_ID": 40298, "ELEMENT_SET_NO": 999, "REV_AT_EPOCH": 61511, "BSTAR": 0.00021793573, "MEAN_MOTION_DOT": 4.542e-05, "MEAN_MOTION_DDOT": 0}, "tle": {"line1": "1 40298U 14070A   25342.91954951  .00004542  00000+0  21794-3 0  9994", "line2": "2 40298  97.3651  58.9594 0005407 131.5407 228.6292 15.19359043615118"}}, "geometry": {"type": "Point", "coordinates": [54.80443710516295, 31.49841560823708]}}, {"type": "Feature", "properties": {"norad_id": 40310, "name": "YAOGAN-24", "group": "resource", "lat": 3.780769794424955, "lon": -65.06376569710292, "alt_km": 634.9199360959792, "timestamp": "2025-12-09T07:41:32.860045+00:00", "meta": {"OBJECT_NAME": "YAOGAN-24", "OBJECT_ID": "2014-072A", "EPOCH": "2025-12-08T22:45:50.636736", "MEAN_MOTION": 14.76166185, "ECCENTRICITY": 0.00145304, "INCLINATION": 98.1224, "RA_OF_ASC_NODE": 114.0216, "ARG_OF_PERICENTER": 149.4812, "MEAN_ANOMALY": 210.7246, "EPHEMERIS_TYPE": 0, "CLASSIFICATION_TYPE": "U", "NORAD_CAT_ID": 40310, "ELEMENT_SET_NO": 999, "REV_AT_EPOCH": 59565, "BSTAR": 0.00029090841, "MEAN_MOTION_DOT": 1.961e-05, "MEAN_MOTION_DDOT": 0}, "tle": {"line1": "1 40310U 14072A   25342.94850274  .00001961  00000+0  29091-3 0  9997", "line2": "2 40310  98.1224 114.0216 0014530 149.4812 210.7246 14.76166185595650"}}, "geometry": {"type": "Point", "coordinates": [-65.06376569710292, 3.780769794424955]}}, {"type": "Feature", "properties": {"norad_id": 40336, "name": "CBERS 4", "group": "resource", "lat": 55.206111929321885, "lon": 29.28025561533657, "alt_km": 767.5103547116823, "timestamp": "2025-12-09T07:41:32.860055+00:00", "meta": {"OBJECT_NAME": "CBERS 4", "OBJECT_ID": "2014-079A", "EPOCH": "2025-12-08T23:04:04.305216", "MEAN_MOTION": 14.35514899, "ECCENTRICITY": 0.00015565, "INCLINATION": 98.331, "RA_OF_ASC_NODE": 41.1071, "ARG_OF_PERICENTER": 116.0674, "MEAN_ANOMALY": 244.0673, "EPHEMERIS_TYPE": 0, "CLASSIFICATION_TYPE": "U", "NORAD_CAT_ID": 40336, "ELEMENT_SET_NO": 999, "REV_AT_EPOCH": 57666, "BSTAR": 2.8118184e-05, "MEAN_MOTION_DOT": 3.9e-07, "MEAN_MOTION_DDOT": 0}, "tle": {"line1": "1 40336U 14079A   25342.96116094  .00000039  00000+0  28118-4 0  9994", "line2": "2 40336  98.3310  41.1071 0001556 116.0674 244.0673 14.35514899576663"}}, "geometry": {"type": "Point", "coordinates": [29.28025561533657, 55.206111929321885]}}, {"type": "Feature", "properties": {"norad_id": 40362, "name": "YAOGAN-26", "group": "resource", "lat": 3.7181118189032625, "lon": 164.57839767211044, "alt_km": 454.77200250052374, "timestamp": "2025-12-09T07:41:32.860065+00:00", "meta": {"OBJECT_NAME": "YAOGAN-26", "OBJECT_ID": "2014-088A", "EPOCH": "2025-12-08T23:07:41.539872", "MEAN_MOTION": 15.3909864, "ECCENTRICITY": 0.00067987, "INCLINATION": 97.0641, "RA_OF_ASC_NODE": 343.7726, "ARG_OF_PERICENTER": 39.7983, "MEAN_ANOMALY": 320.3761, "EPHEMERIS_TYPE": 0, "CLASSIFICATION_TYPE": "U", "NORAD_CAT_ID": 40362, "ELEMENT_SET_NO": 999, "REV_AT_EPOCH": 60836, "BSTAR": 0.00071982026, "MEAN_MOTION_DOT": 0.00027892, "MEAN_MOTION_DDOT": 0}, "tle": {"line1": "1 40362U 14088A   25342.96367523  .00027892  00000+0  71982-3 0  9990", "line2": "2 40362  97.0641 343.7726 0006798  39.7983 320.3761 15.39098640608365"}}, "geometry": {"type": "Point", "coordinates": [164.57839767211044, 3.7181118189032625]}}, {"type": "Feature", "properties": {"norad_id": 40376, "name": "SMAP", "group": "resource", "lat": -79.29269175615248, "lon": 37.1993261489056, "alt_km": 690.5958069011822, "timestamp": "2025-12-09T07:41:32.860076+00:00", "meta": {"OBJECT_NAME": "SMAP", "OBJECT_ID": "2015-003A", "EPOCH": "2025-12-08T23:51:57.895776", "MEAN_MOTION": 14.63337109, "ECCENTRICITY": 0.00012056, "INCLINATION": 98.129, "RA_OF_ASC_NODE": 347.7722, "ARG_OF_PERICENTER": 88.198, "MEAN_ANOMALY": 271.936, "EPHEMERIS_TYPE": 0, "CLASSIFICATION_TYPE": "U", "NORAD_CAT_ID": 40376, "ELEMENT_SET_NO": 999, "REV_AT_EPOCH": 57980, "BSTAR": 0.0001802682, "MEAN_MOTION_DOT": 8.84e-06, "MEAN_MOTION_DDOT": 0}, "tle": {"line1": "1 40376U 15003A   25342.99442009  .00000884  00000+0  18027-3 0  9992", "line2": "2 40376  98.1290 347.7722 0001205  88.1980 271.9360 14.63337109579809"}}, "geometry": {"type": "Point", "coordinates": [37.1993261489056, -79.29269175615248]}}, {"type": "Feature", "properties": {"norad_id": 40536, "name": "KOMPSAT-3A", "group": "resource", "lat": 58.36783615526198, "lon": -55.17440269888657, "alt_km": 428.61662503993375, "timestamp": "2025-12-09T07:41:32.860086+00:00", "meta": {"OBJECT_NAME": "KOMPSAT-3A", "OBJECT_ID": "2015-014A", "EPOCH": "2025-12-08T22:06:09.864864", "MEAN_MOTION": 15.43731285, "ECCENTRICITY": 0.00044771, "INCLINATION": 97.679, "RA_OF_ASC_NODE": 317.0571, "ARG_OF_PERICENTER": 134.6279, "MEAN_ANOMALY": 225.5334, "EPHEMERIS_TYPE": 0, "CLASSIFICATION_TYPE": "U", "NORAD_CAT_ID": 40536, "ELEMENT_SET_NO": 999, "REV_AT_EPOCH": 59236, "BSTAR": 0.00049293706, "MEAN_MOTION_DOT": 0.00022213, "MEAN_MOTION_DDOT": 0}, "tle": {"line1": "1 40536U 15014A   25342.92094751  .00022213  00000+0  49294-3 0  9992", "line2": "2 40536  97.6790 317.0571 0004477 134.6279 225.5334 15.43731285592364"}}, "geometry": {"type": "Point", "coordinates": [-55.17440269888657, 58.36783615526198]}}]}